IRIDIUM 7               
1 24793U 97020B   25184.48362610  .00000299  00000+0  96426-4 0  9993
2 24793  86.3987 170.0861 0002559  85.3865 274.7624 14.35947848474232
IRIDIUM 5               
1 24795U 97020D   25184.44704104  .00004207  00000+0  34206-3 0  9999
2 24795  86.3875  76.2345 0111184  80.1923 281.1839 14.94462137487891
IRIDIUM 914             
1 24836U 97030A   25184.48386152  .00000332  00000+0  97419-4 0  9990
2 24836  86.3960 175.5031 0003073 119.1516 240.9991 14.40881828609470
IRIDIUM 16              
1 24841U 97030F   25184.53775549  .00000267  00000+0  80636-4 0  9994
2 24841  86.4045 198.4084 0003533  51.6496 308.5020 14.38722939469350
IRIDIUM 911             
1 24842U 97030G   25184.56755397  .00000407  00000+0  10466-3 0  9996
2 24842  86.4470 197.1484 0015917  49.3909 310.8676 14.47651893477458
IRIDIUM 17              
1 24870U 97034B   25184.60466210  .00000258  00000+0  79020-4 0  9995
2 24870  86.3952 227.8493 0001797  46.7284 313.4064 14.37837880465944
IRIDIUM 920             
1 24871U 97034C   25184.60529711  .00000311  00000+0  89490-4 0  9994
2 24871  86.3980 207.0475 0012818  37.0227 323.1855 14.41543346468947
